IRIDIUM 112             
1 41925U 17003J   24032.25970139  .00000202  00000+0  64930-4 0  9998
2 41925  86.3936  90.6354 0002370  92.0481 268.0986 14.34219016369010
IRIDIUM 111             
1 41926U 17003K   24032.24701137  .00000225  00000+0  73441-4 0  9990
2 41926  86.3938  90.6921 0002137  86.2315 273.9125 14.34220334368996
IRIDIUM 113             
1 42803U 17039A   24032.29674962  .00000114  00000+0  33605-4 0  9999
2 42803  86.4008 324.4284 0002235  79.5422 280.6025 14.34217735346938
IRIDIUM 123             
1 42804U 17039B   24032.40799720  .00000104  00000+0  30067-4 0  9991
2 42804  86.4003 355.8669 0002223  82.5698 277.5750 14.34216858345715
IRIDIUM 120             
1 42805U 17039C   24032.56948078  .00000274  00000+0  90909-4 0  9990
2 42805  86.3994 324.2096 0002153  84.5306 275.6135 14.34218496346962
IRIDIUM 115             
1 42806U 17039D   24032.34442049  .00000575  00000+0  16490-3 0  9990
2 42806  86.4533 324.3082 0002211  79.9520 280.1930 14.43267555349237
IRIDIUM 118             
1 42807U 17039E   24032.43970538  .00000504  00000+0  17285-3 0  9995
2 42807  86.4000 355.8554 0002213  85.1672 274.9777 14.34216658345716
IRIDIUM 117             
1 42808U 17039F   24032.38896761  .00000115  00000+0  34057-4 0  9990
2 42808  86.4000 355.8424 0002087  82.9492 277.1941 14.34218586345739
